RS27S UTMN-2
1 57203U 23091AP  26171.45706625  .00010973  00000+0  35586-3 0  9993
2 57203  97.5082 238.7236 0009091  74.0952 286.1291 15.32118609165048
METEOR-M2-4
1 59051U 24039A   26171.48950904  .00000005  00000+0  22070-4 0  9993
2 59051  98.7012 130.7460 0007477 151.8855 208.2728 14.22429813119734
SONATE-2
1 59112U 24043Q   26171.41218347  .00036201  00000+0  46629-3 0  9999
2 59112  97.5542 322.0062 0007216 184.8807 175.2380 15.58929844128393
GRBBeta
1 60237U 24128C   26171.40570095  .00002226  00000+0  16133-3 0  9990
2 60237  61.9881 204.9739 0040241 135.3081 225.1267 15.06654606106752
Curium One
1 60242U 24128H   26171.40948891  .00005243  00000+0  30654-3 0  9995
2 60242  61.9767 194.3615 0039427 131.3824 229.0673 15.12543666106946
ROBUSTA-3A
1 60243U 24128J   26171.44217900  .00004267  00000+0  25756-3 0  9992
2 60243  61.9846 196.7324 0041011 128.5967 231.8813 15.11702693106916
CatSat
1 60246U 24125J   26171.02851399  .00058542  00000+0  74280-3 0  9993
2 60246  97.2084  23.5660 0022422 169.4284 190.7449 15.58946359107836
ARTIC WX
1 60543U 24149CD  26171.44476470  .00000538  00000+0  61650-4 0  9998
2 60543  97.6803 241.8173 0003665  98.0673 262.0961 14.89786475 99780
HYPERVIEW-1G (RS66S)
1 61772U 24199AP  26171.11001400  .00125192  00000+0  78003-3 0  9992
2 61772  97.2851  50.9798 0004715 207.8229 152.2786 15.76549631135133
AO-123
1 61781U 24199AY  26171.42296523  .00006434  00000+0  18716-3 0  9990
2 61781  97.2995  40.0642 0012089 300.9779  59.0277 15.35714948134428
SAMSAT-IONOSPHERE
1 61784U 24199BB  26171.39980315  .00041170  00000+0  55142-3 0  9998
2 61784  97.2937  47.3627 0005975 259.6998 100.3584 15.57868475138063
LASARsat
1 62391U 24247Q   26171.27059198  .00028493  00000+0  56523-3 0  9997
2 62391  44.9733 244.8864 0007836 348.4451  11.6258 15.46534749 83790
CROCUBE
1 62394U 24247T   26170.49048578  .00032668  00000+0  60622-3 0  9997
2 62394  44.9701 246.5654 0007740 349.0739  10.9982 15.48397693 83708
JINJUSat 1B
1 63210U 25052A   26170.69073646  .00013525  00000+0  41876-3 0  9997
2 63210  97.3998  67.4488 0005436  85.5087 274.6776 15.33568631 70486
NUSHSAT 1
1 63211U 25052B   26171.18640506  .00018481  00000+0  52750-3 0  9997
2 63211  97.3973  68.5214 0005172  87.7596 272.4240 15.36071329 70607
TEVEL2-4
1 63213U 25052D   26171.44236345  .00016057  00000+0  47906-3 0  9994
2 63213  97.3895  67.8392 0004959  96.9497 263.2310 15.34707854 70619
TEVEL2-5
1 63214U 25052E   26171.26760575  .00015978  00000+0  47945-3 0  9996
2 63214  97.3892  67.6107 0004895  98.9294 261.2503 15.34527610 70583
TEVEL2-6
1 63215U 25052F   26171.28000723  .00015976  00000+0  47994-3 0  9993
2 63215  97.3898  67.6078 0004759  99.4633 260.7149 15.34492782 70580
TEVEL2-1
1 63217U 25052H   26171.17964496  .00015594  00000+0  47659-3 0  9993
2 63217  97.3873  67.1285 0004873 107.5627 252.6148 15.33952529 70556
TEVEL2-3
1 63218U 25052J   26171.43510259  .00015215  00000+0  46415-3 0  9996
2 63218  97.3872  67.4058 0004851 107.4306 252.7467 15.34015837 70598
TEVEL2-2
1 63219U 25052K   26171.44087273  .00015148  00000+0  46281-3 0  9999
2 63219  97.3872  67.3917 0004899 108.0209 252.1568 15.33968526 70590
TEVEL2-9
1 63237U 25052AD  26171.42250345  .00013890  00000+0  45158-3 0  9993
2 63237  97.3932  66.7416 0008057 121.8629 238.3398 15.31981442 70523
TEVEL2-7
1 63238U 25052AE  26171.20271571  .00013367  00000+0  43885-3 0  9998
2 63238  97.3934  66.4373 0008076 122.8867 237.3153 15.31676701 70483
TEVEL2-8
1 63239U 25052AF  26170.68834909  .00012538  00000+0  41221-3 0  9991
2 63239  97.3937  65.9009 0008075 124.5955 235.6049 15.31647647 70407
PARUS-T2
1 64560U 25135AJ  26171.28429227  .00003308  00000+0  30276-3 0  9994
2 64560  97.7746 285.9434 0000917 110.9842 249.1477 14.95650282 54375
Geoscan-1
1 64880U 25155E   26171.38708490  .00009677  00000+0  32727-3 0  9992
2 64880  97.4556 140.1018 0008742 152.1627 208.0084 15.30802172 81262
239Alferov
1 64881U 25155F   26171.41741150  .00012390  00000+0  39041-3 0  9999
2 64881  97.4557 140.7047 0008428 149.3276 210.8460 15.33013503 81300
Geoscan-2
1 64890U 25155Q   26171.44555816  .00009240  00000+0  31002-3 0  9993
2 64890  97.4555 140.3144 0008430 139.9108 220.2756 15.31074417 81283
Geoscan-4
1 64892U 25155S   26171.38963691  .00012558  00000+0  38997-3 0  9998
2 64892  97.4552 140.8647 0007255 152.3865 207.7764 15.33485322 81314
Geoscan-3
1 64893U 25155T   26171.38624047  .00015526  00000+0  45188-3 0  9996
2 64893  97.4541 141.3003 0007202 150.8779 209.2867 15.35486190 81344
SPIRONE
1 66657U 25274H   26171.33677641  .00001688  00000+0  16531-3 0  9995
2 66657  97.7480 100.5829 0012359  11.8174 348.3333 14.93554664 30696
K-HERO
1 66660U 25274L   26170.73769811  .00001628  00000+0  15799-3 0  9992
2 66660  97.7486 100.1552 0014392  16.7711 343.3982 14.93969599 30619
SNUGLITE-III DURI
1 66661U 25274M   26171.32818201  .00001124  00000+0  11060-3 0  9995
2 66661  97.7484 100.7584 0014989  15.5195 344.6482 14.94009334 30706
GALAPAGOS
1 67279U 25313AH  26170.76963954  .00005505  00000+0  23753-3 0  9997
2 67279  97.3919 245.3392 0013679   1.4198 358.7075 15.22856840 26349
Lobachevsky
1 67282U 25313AL  26170.77818047  .00004109  00000+0  17723-3 0  9993
2 67282  97.3924 245.4696 0010232 359.0352   1.0863 15.23059785 26351
SAKHACUBE-CHOLBON
1 67290U 25313AU  26170.45696629  .00007736  00000+0  31324-3 0  9999
2 67290  97.3931 245.4637 0008608 357.2855   2.8334 15.24922033 26320
RS95S (QMR-KWT-2)
1 67291U 25313AV  26170.70536872  .00011199  00000+0  43324-3 0  9992
2 67291  97.3925 245.8896 0007987 353.2594   6.8536 15.26346044 26377
KNACKSAT-2
1 67683U 98067XZ  26170.59247606  .00040473  00000+0  49084-3 0  9990
2 67683  51.6307 282.3774 0008934 225.7617 134.2643 15.60167582 20658
Ten-Koh2
1 68261U 25241B   26171.42583064  .00004788  00000+0  20896-3 0  9990
2 68261  51.6704 304.2166 0005815 151.3267 208.8031 15.23935965 15404
JACK-002
1 68417U 26067B   26170.86158908  .00005090  00000+0  24354-3 0  9992
2 68417  97.4570 129.4189 0000162 167.0681 193.0558 15.19420860 12350
DISCO 2
1 68431U 26067R   26171.34440683  .00006749  00000+0  32462-3 0  9997
2 68431  97.4603 129.8842 0002500  38.3068 321.8343 15.19114251 12425
HADES-SA (SpinnyONE)
1 68446U 26067AG  26170.85664013  .00014903  00000+0  71102-3 0  9998
2 68446  97.4408 129.1130 0009323  75.2223 285.0044 15.19135217 12334
PARUS-6U1
1 68456U 26067AS  26171.35349334  .00004924  00000+0  24855-3 0  9996
2 68456  97.4554 129.6681 0007294  63.6865 296.5117 15.17545160 12418
SAL-E
1 68458U 26067AU  26171.34842208  .00006555  00000+0  32732-3 0  9990
2 68458  97.4477 129.5972 0007844  71.1717 289.0367 15.17794593 12417
FSI-SAT 2
1 68792U 26088A   26171.40682044  .00003327  00000+0  22652-3 0  9995
2 68792  97.5080 320.5852 0016078  96.7112 263.5946 15.06859588  8778
OrigamiSat 2
1 68795U 26088D   26171.34560186  .00010363  00000+0  66061-3 0  9993
2 68795  97.5085 320.6709 0016215  71.4280 288.8709 15.08799773  8775
ARICA 2
1 68796U 26088E   26171.41188868  .00003371  00000+0  21980-3 0  9997
2 68796  97.5072 320.7236 0017041  70.2764 290.0301 15.08450962  8788
WASEDA-SAT-ZERO-II
1 68797U 26088F   26171.40713634  .00004837  00000+0  31169-3 0  9990
2 68797  97.5070 320.7288 0016850  70.1739 290.1304 15.08674988  8782
MANGARO-II-Piscus
1 68798U 26088G   26171.39729625  .00002656  00000+0  17212-3 0  9996
2 68798  97.5077 320.7490 0020510  72.2845 288.0620 15.08804671  8785
Delfi-N3xt
1 39428U 13066N   26171.32352793  .00004874  00000-0  42647-3 0  9992
2 39428  97.8333  91.6316 0073876 194.8900 165.0146 14.95104097675099
IO-86
1 40931U          25360.30710720  .00000000  00000-0  12800-3 0    00
2 40931   6.0006 332.5373 0012733 338.8432   8.1437 14.79075515    01
LILIUM-4
1 71922C 26067AC  26089.50133053 -.00014632  00000 0 -74472-3 0    04
2 71922  97.4497  49.1617 0004341   5.9603 355.7042 15.16896692    16
TRANSIT 5B-5
1 00965U 64083D   26140.22132175  .00000058  00000-0  68520-4 0  9995
2 00965  90.0785 202.8139 0041495   2.6876  57.4259 13.57009955 39826
PARUS-T1
1 98707U 25009N   25063.20000000  .00000000  00000-0  00000-0 0    08
2 98707  97.4430 144.9801 0003811 149.1702 136.3402 15.16239457    06
T.MicroSat-1
1 98515U 25276Y   25347.12519372 +.00009703 +00000+0 +47621-3 0 00218
2 98515  97.4377  58.8963 0002080  99.7173 260.4296 15.18293117002180
ARICA-2
1 98329U 27001A   26113.71443610  .00000000  00000-0  29916-3 0    03
2 98329  97.5133 264.2063 0010953 206.3608 281.8662 15.08387874    01
CORIOLIS
1 27640U 03001A   26171.43857340  .00000069  00000+0  53062-4 0  9998
2 27640  98.7125 178.2738 0013553 199.0083 161.0590 14.19945602214680
